CTC2_L_00290001-01
1 29141U 24159UI  26070.40846065  .00000000  00000+0  00000-0 0  9995
2 29141  55.0000   0.0000 0000000   0.0000   0.0000 13.81096544    11
CTC2_L_00290001-02
1 29142U 23423EC  26070.40846065  .00000000  00000+0  00000-0 0  9999
2 29142  55.0000   0.0000 0000000   0.0000  90.0000 13.81096544    11
CTC2_L_00290001-03
1 29143U 23044MP  26070.40846065  .00000000  00000+0  00000-0 0  9999
2 29143  55.0000   0.0000 0000000   0.0000 180.0000 13.81096544    12
CTC2_L_00290001-04
1 29144U 22901GN  26070.40846065  .00000000  00000+0  00000-0 0  9991
2 29144  55.0000   0.0000 0000000   0.0000 270.0000 13.81096544    13
CTC2_L_00290002-01
1 29145U 25351OG  26070.40846065  .00000000  00000+0  00000-0 0  9994
2 29145  55.0000  12.0000 0000000   0.0000  12.0000 13.81096544    11
CTC2_L_00290002-02
1 29146U 24816CF  26070.40846065  .00000000  00000+0  00000-0 0  9990
2 29146  55.0000  12.0000 0000000   0.0000 102.0000 13.81096544    12
CTC2_L_00290002-03
1 29147U 23930CE  26070.40846065  .00000000  00000+0  00000-0 0  9997
2 29147  55.0000  12.0000 0000000   0.0000 192.0000 13.81096544    12
CTC2_L_00290002-04
1 29148U 23227XD  26070.40846065  .00000000  00000+0  00000-0 0  9997
2 29148  55.0000  12.0000 0000000   0.0000 282.0000 13.81096544    13
CTC2_L_00290003-01
1 29149U 22587ZN  26070.40846065  .00000000  00000+0  00000-0 0  9996
2 29149  55.0000  24.0000 0000000   0.0000  24.0000 13.81096544    11
CTC2_L_00290003-02
1 29150U 26383BX  26070.40846065  .00000000  00000+0  00000-0 0  9996
2 29150  55.0000  24.0000 0000000   0.0000 114.0000 13.81096544    13
CTC2_L_00290003-03
1 29151U 24598TJ  26070.40846065  .00000000  00000+0  00000-0 0  9993
2 29151  55.0000  24.0000 0000000   0.0000 204.0000 13.81096544    14
CTC2_L_00290003-04
1 29152U 26932QJ  26070.40846065  .00000000  00000+0  00000-0 0  9998
2 29152  55.0000  24.0000 0000000   0.0000 294.0000 13.81096544    14
CTC2_L_00290004-01
1 29153U 22116GH  26070.40846065  .00000000  00000+0  00000-0 0  9999
2 29153  55.0000  36.0000 0000000   0.0000  36.0000 13.81096544    12
CTC2_L_00290004-02
1 29154U 22064PE  26070.40846065  .00000000  00000+0  00000-0 0  9992
2 29154  55.0000  36.0000 0000000   0.0000 126.0000 13.81096544    13
CTC2_L_00290004-03
1 29155U 25446PG  26070.40846065  .00000000  00000+0  00000-0 0  9990
2 29155  55.0000  36.0000 0000000   0.0000 216.0000 13.81096544    14
CTC2_L_00290004-04
1 29156U 24490QS  26070.40846065  .00000000  00000+0  00000-0 0  9999
2 29156  55.0000  36.0000 0000000   0.0000 306.0000 13.81096544    15
CTC2_L_00290005-01
1 29157U 24209LT  26070.40846065  .00000000  00000+0  00000-0 0  9998
2 29157  55.0000  48.0000 0000000   0.0000  48.0000 13.81096544    12
CTC2_L_00290005-02
1 29158U 23370XI  26070.40846065  .00000000  00000+0  00000-0 0  9997
2 29158  55.0000  48.0000 0000000   0.0000 138.0000 13.81096544    13
CTC2_L_00290005-03
1 29159U 24335SO  26070.40846065  .00000000  00000+0  00000-0 0  9990
2 29159  55.0000  48.0000 0000000   0.0000 228.0000 13.81096544    14
CTC2_L_00290005-04
1 29160U 23543QF  26070.40846065  .00000000  00000+0  00000-0 0  9992
2 29160  55.0000  48.0000 0000000   0.0000 318.0000 13.81096544    16
CTC2_L_00290006-01
1 29161U 26358GI  26070.40846065  .00000000  00000+0  00000-0 0  9990
2 29161  55.0000  60.0000 0000000   0.0000  60.0000 13.81096544    15
CTC2_L_00290006-02
1 29162U 24493KL  26070.40846065  .00000000  00000+0  00000-0 0  9999
2 29162  55.0000  60.0000 0000000   0.0000 150.0000 13.81096544    16
CTC2_L_00290006-03
1 29163U 26826ZB  26070.40846065  .00000000  00000+0  00000-0 0  9992
2 29163  55.0000  60.0000 0000000   0.0000 240.0000 13.81096544    17
CTC2_L_00290006-04
1 29164U 26492VX  26070.40846065  .00000000  00000+0  00000-0 0  9992
2 29164  55.0000  60.0000 0000000   0.0000 330.0000 13.81096544    18
CTC2_L_00290007-01
1 29165U 25989UV  26070.40846065  .00000000  00000+0  00000-0 0  9993
2 29165  55.0000  72.0000 0000000   0.0000  72.0000 13.81096544    15
CTC2_L_00290007-02
1 29166U 25383IS  26070.40846065  .00000000  00000+0  00000-0 0  9992
2 29166  55.0000  72.0000 0000000   0.0000 162.0000 13.81096544    16
CTC2_L_00290007-03
1 29167U 22399FX  26070.40846065  .00000000  00000+0  00000-0 0  9997
2 29167  55.0000  72.0000 0000000   0.0000 252.0000 13.81096544    17
CTC2_L_00290007-04
1 29168U 25983JV  26070.40846065  .00000000  00000+0  00000-0 0  9990
2 29168  55.0000  72.0000 0000000   0.0000 342.0000 13.81096544    18
CTC2_L_00290008-01
1 29169U 24012DG  26070.40846065  .00000000  00000+0  00000-0 0  9993
2 29169  55.0000  84.0000 0000000   0.0000  84.0000 13.81096544    15
CTC2_L_00290008-02
1 29170U 23631DQ  26070.40846065  .00000000  00000+0  00000-0 0  9991
2 29170  55.0000  84.0000 0000000   0.0000 174.0000 13.81096544    17
CTC2_L_00290008-03
1 29171U 22031NY  26070.40846065  .00000000  00000+0  00000-0 0  9995
2 29171  55.0000  84.0000 0000000   0.0000 264.0000 13.81096544    18
CTC2_L_00290008-04
1 29172U 26886AT  26070.40846065  .00000000  00000+0  00000-0 0  9998
2 29172  55.0000  84.0000 0000000   0.0000 354.0000 13.81096544    19
CTC2_L_00290009-01
1 29173U 25892UA  26070.40846065  .00000000  00000+0  00000-0 0  9995
2 29173  55.0000  96.0000 0000000   0.0000  96.0000 13.81096544    16
CTC2_L_00290009-02
1 29174U 24851AG  26070.40846065  .00000000  00000+0  00000-0 0  9990
2 29174  55.0000  96.0000 0000000   0.0000 186.0000 13.81096544    17
CTC2_L_00290009-03
1 29175U 23746VT  26070.40846065  .00000000  00000+0  00000-0 0  9993
2 29175  55.0000  96.0000 0000000   0.0000 276.0000 13.81096544    18
CTC2_L_00290009-04
1 29176U 25337EP  26070.40846065  .00000000  00000+0  00000-0 0  9992
2 29176  55.0000  96.0000 0000000   0.0000   6.0000 13.81096544    10
CTC2_L_00290010-01
1 29177U 26487UH  26070.40846065  .00000000  00000+0  00000-0 0  9990
2 29177  55.0000 108.0000 0000000   0.0000 108.0000 13.81096544    18
CTC2_L_00290010-02
1 29178U 22038XV  26070.40846065  .00000000  00000+0  00000-0 0  9999
2 29178  55.0000 108.0000 0000000   0.0000 198.0000 13.81096544    18
CTC2_L_00290010-03
1 29179U 25975AC  26070.40846065  .00000000  00000+0  00000-0 0  9993
2 29179  55.0000 108.0000 0000000   0.0000 288.0000 13.81096544    19
CTC2_L_00290010-04
1 29180U 24369TX  26070.40846065  .00000000  00000+0  00000-0 0  9991
2 29180  55.0000 108.0000 0000000   0.0000  18.0000 13.81096544    12
CTC2_L_00290011-01
1 29181U 26703LK  26070.40846065  .00000000  00000+0  00000-0 0  9996
2 29181  55.0000 120.0000 0000000   0.0000 120.0000 13.81096544    11
CTC2_L_00290011-02
1 29182U 23014XG  26070.40846065  .00000000  00000+0  00000-0 0  9999
2 29182  55.0000 120.0000 0000000   0.0000 210.0000 13.81096544    12
CTC2_L_00290011-03
1 29183U 24508UP  26070.40846065  .00000000  00000+0  00000-0 0  9999
2 29183  55.0000 120.0000 0000000   0.0000 300.0000 13.81096544    13
CTC2_L_00290011-04
1 29184U 23233SA  26070.40846065  .00000000  00000+0  00000-0 0  9994
2 29184  55.0000 120.0000 0000000   0.0000  30.0000 13.81096544    14
CTC2_L_00290012-01
1 29185U 25308VQ  26070.40846065  .00000000  00000+0  00000-0 0  9990
2 29185  55.0000 132.0000 0000000   0.0000 132.0000 13.81096544    11
CTC2_L_00290012-02
1 29186U 24627OG  26070.40846065  .00000000  00000+0  00000-0 0  9994
2 29186  55.0000 132.0000 0000000   0.0000 222.0000 13.81096544    12
CTC2_L_00290012-03
1 29187U 24374SU  26070.40846065  .00000000  00000+0  00000-0 0  9994
2 29187  55.0000 132.0000 0000000   0.0000 312.0000 13.81096544    13
CTC2_L_00290012-04
1 29188U 24864LG  26070.40846065  .00000000  00000+0  00000-0 0  9999
2 29188  55.0000 132.0000 0000000   0.0000  42.0000 13.81096544    14
CTC2_L_00290013-01
1 29189U 24767ZB  26070.40846065  .00000000  00000+0  00000-0 0  9992
2 29189  55.0000 144.0000 0000000   0.0000 144.0000 13.81096544    11
CTC2_L_00290013-02
1 29190U 24271CW  26070.40846065  .00000000  00000+0  00000-0 0  9994
2 29190  55.0000 144.0000 0000000   0.0000 234.0000 13.81096544    13
CTC2_L_00290013-03
1 29191U 26869SD  26070.40846065  .00000000  00000+0  00000-0 0  9990
2 29191  55.0000 144.0000 0000000   0.0000 324.0000 13.81096544    14
CTC2_L_00290013-04
1 29192U 22019KF  26070.40846065  .00000000  00000+0  00000-0 0  9994
2 29192  55.0000 144.0000 0000000   0.0000  54.0000 13.81096544    15
CTC2_L_00290014-01
1 29193U 23915RU  26070.40846065  .00000000  00000+0  00000-0 0  9991
2 29193  55.0000 156.0000 0000000   0.0000 156.0000 13.81096544    12
CTC2_L_00290014-02
1 29194U 26900LK  26070.40846065  .00000000  00000+0  00000-0 0  9999
2 29194  55.0000 156.0000 0000000   0.0000 246.0000 13.81096544    13
CTC2_L_00290014-03
1 29195U 24926XL  26070.40846065  .00000000  00000+0  00000-0 0  9996
2 29195  55.0000 156.0000 0000000   0.0000 336.0000 13.81096544    14
CTC2_L_00290014-04
1 29196U 24666MQ  26070.40846065  .00000000  00000+0  00000-0 0  9998
2 29196  55.0000 156.0000 0000000   0.0000  66.0000 13.81096544    15
CTC2_L_00290015-01
1 29197U 23590AX  26070.40846065  .00000000  00000+0  00000-0 0  9994
2 29197  55.0000 168.0000 0000000   0.0000 168.0000 13.81096544    12
CTC2_L_00290015-02
1 29198U 24444UU  26070.40846065  .00000000  00000+0  00000-0 0  9994
2 29198  55.0000 168.0000 0000000   0.0000 258.0000 13.81096544    13
CTC2_L_00290015-03
1 29199U 23881EQ  26070.40846065  .00000000  00000+0  00000-0 0  9999
2 29199  55.0000 168.0000 0000000   0.0000 348.0000 13.81096544    14
CTC2_L_00290015-04
1 29200U 24106TZ  26070.40846065  .00000000  00000+0  00000-0 0  9993
2 29200  55.0000 168.0000 0000000   0.0000  78.0000 13.81096544    17
CTC2_L_00290016-01
1 29201U 22259AI  26070.40846065  .00000000  00000+0  00000-0 0  9991
2 29201  55.0000 180.0000 0000000   0.0000 180.0000 13.81096544    16
CTC2_L_00290016-02
1 29202U 26950ZB  26070.40846065  .00000000  00000+0  00000-0 0  9994
2 29202  55.0000 180.0000 0000000   0.0000 270.0000 13.81096544    17
